BLUEWALKER-3            
1 53807U 22111AL  26202.35020169  .00004373  00000+0  12299-3 0  9990
2 53807  53.2275 233.5359 0004718 292.9039  67.1468 15.38652942215468
SPACEMOBILE-003         
1 61045U 24163A   26201.99683206  .00002028  00000+0  10564-3 0  9996
2 61045  52.9677 153.9638 0004157 213.3860 146.6872 15.20726769102911
SPACEMOBILE-005         
1 61046U 24163B   26203.16331825  .00002516  00000+0  12789-3 0  9998
2 61046  52.9739 148.5582 0008184 216.0636 143.9807 15.20635294103083
SPACEMOBILE-001         
1 61047U 24163C   26202.83302022  .00000503  00000+0  37332-4 0  9995
2 61047  52.9716 149.7842 0006610 211.1317 148.9286 15.20687307103038
SPACEMOBILE-002         
1 61048U 24163D   26202.15995894  .00014941  00000+0  68857-3 0  9992
2 61048  52.9778 152.9178 0004354 211.0455 149.0283 15.20486096102939
SPACEMOBILE-004         
1 61049U 24163E   26202.27362846  .00015015  00000+0  68855-3 0  9992
2 61049  52.9720 152.1723 0005157 251.3714 108.6720 15.20649512102955
SPACEMOBILE-006         
1 67232U 25309A   26203.18674793  .00002664  00000+0  14204-3 0  9998
2 67232  52.9952 171.3039 0009520 239.2696 120.7360 15.18684570 31919
SPACEMOBILE-008         
1 69589U 26139A   26203.02362932  .00000387  00000+0  38732-4 0  9992
2 69589  52.9952 104.4056 0005288  72.6023 287.5546 15.12810954  5259
SPACEMOBILE-009         
1 69590U 26139B   26203.02606359  .00001404  00000+0  96209-4 0  9992
2 69590  52.9945 104.4147 0005584  69.1876 290.9713 15.12712567  5255
SPACEMOBILE-010         
1 69591U 26139C   26202.96383946  .00001392  00000+0  95955-4 0  9992
2 69591  52.9950 104.7416 0005574  61.5315 298.6237 15.12549374  5257
